[Satellite]
VERSION=1.1
NAME=GLOBALSTAR M049
NICKNAME=GLOBALSTAR M049
TLE1=1 25771U 99031B   17186.30411264 -.00000046  00000-0  67952-3 0  9991
TLE2=2 25771  51.9883 294.9324 0001841 223.5126 136.5526 11.12088240794348
